[{"OBJECT_NAME":"ONEWEB-0264","OBJECT_ID":"2021-060R","EPOCH":"2025-12-07T19:46:29.069184","MEAN_MOTION":13.1659458,"ECCENTRICITY":0.00019655,"INCLINATION":87.904,"RA_OF_ASC_NODE":266.8929,"ARG_OF_PERICENTER":77.9711,"MEAN_ANOMALY":282.164,"EPHEMERIS_TYPE":0,"CLASSIFICATION_TYPE":"U","NORAD_CAT_ID":48982,"ELEMENT_SET_NO":999,"REV_AT_EPOCH":21441,"BSTAR":-0.0010792991,"MEAN_MOTION_DOT":-4.0e-6,"MEAN_MOTION_DDOT":0},{"OBJECT_NAME":"ONEWEB-0266","OBJECT_ID":"2021-060T","EPOCH":"2025-12-07T20:17:17.065824","MEAN_MOTION":13.16594992,"ECCENTRICITY":0.00016189,"INCLINATION":87.9043,"RA_OF_ASC_NODE":266.8737,"ARG_OF_PERICENTER":70.3259,"MEAN_ANOMALY":289.8046,"EPHEMERIS_TYPE":0,"CLASSIFICATION_TYPE":"U","NORAD_CAT_ID":48984,"ELEMENT_SET_NO":999,"REV_AT_EPOCH":21440,"BSTAR":0.00010219606,"MEAN_MOTION_DOT":5.2e-7,"MEAN_MOTION_DDOT":0},{"OBJECT_NAME":"ONEWEB-0267","OBJECT_ID":"2021-060U","EPOCH":"2025-12-07T20:33:13.434336","MEAN_MOTION":13.16597171,"ECCENTRICITY":0.00019527,"INCLINATION":87.9038,"RA_OF_ASC_NODE":266.8706,"ARG_OF_PERICENTER":73.2036,"MEAN_ANOMALY":286.9309,"EPHEMERIS_TYPE":0,"CLASSIFICATION_TYPE":"U","NORAD_CAT_ID":48985,"ELEMENT_SET_NO":999,"REV_AT_EPOCH":21441,"BSTAR":0.00038390386,"MEAN_MOTION_DOT":1.6e-6,"MEAN_MOTION_DDOT":0},{"OBJECT_NAME":"ONEWEB-0268","OBJECT_ID":"2021-060V","EPOCH":"2025-12-07T19:47:38.615136","MEAN_MOTION":13.1659573,"ECCENTRICITY":0.00017811,"INCLINATION":87.9046,"RA_OF_ASC_NODE":266.8857,"ARG_OF_PERICENTER":75.8225,"MEAN_ANOMALY":284.3104,"EPHEMERIS_TYPE":0,"CLASSIFICATION_TYPE":"U","NORAD_CAT_ID":48986,"ELEMENT_SET_NO":999,"REV_AT_EPOCH":21467,"BSTAR":-0.00012532793,"MEAN_MOTION_DOT":-3.5e-7,"MEAN_MOTION_DDOT":0},{"OBJECT_NAME":"ONEWEB-0269","OBJECT_ID":"2021-060W","EPOCH":"2025-12-07T19:20:16.550304","MEAN_MOTION":13.16596394,"ECCENTRICITY":0.00016721,"INCLINATION":87.9033,"RA_OF_ASC_NODE":266.9115,"ARG_OF_PERICENTER":81.3691,"MEAN_ANOMALY":278.7629,"EPHEMERIS_TYPE":0,"CLASSIFICATION_TYPE":"U","NORAD_CAT_ID":48987,"ELEMENT_SET_NO":999,"REV_AT_EPOCH":21444,"BSTAR":0.00010396536,"MEAN_MOTION_DOT":5.3e-7,"MEAN_MOTION_DDOT":0},{"OBJECT_NAME":"ONEWEB-0270","OBJECT_ID":"2021-060X","EPOCH":"2025-12-07T19:45:21.595968","MEAN_MOTION":13.16596568,"ECCENTRICITY":0.00020225,"INCLINATION":87.9046,"RA_OF_ASC_NODE":266.8876,"ARG_OF_PERICENTER":64.4836,"MEAN_ANOMALY":295.6504,"EPHEMERIS_TYPE":0,"CLASSIFICATION_TYPE":"U","NORAD_CAT_ID":48988,"ELEMENT_SET_NO":999,"REV_AT_EPOCH":21448,"BSTAR":-3.5782013e-5,"MEAN_MOTION_DOT":-1.0e-8,"MEAN_MOTION_DDOT":0},{"OBJECT_NAME":"ONEWEB-0271","OBJECT_ID":"2021-060Y","EPOCH":"2025-12-07T19:27:08.231616","MEAN_MOTION":13.16594843,"ECCENTRICITY":0.00019967,"INCLINATION":87.9049,"RA_OF_ASC_NODE":266.8784,"ARG_OF_PERICENTER":72.7172,"MEAN_ANOMALY":287.4178,"EPHEMERIS_TYPE":0,"CLASSIFICATION_TYPE":"U","NORAD_CAT_ID":48989,"ELEMENT_SET_NO":999,"REV_AT_EPOCH":21448,"BSTAR":1.36187e-6,"MEAN_MOTION_DOT":1.3e-7,"MEAN_MOTION_DDOT":0},{"OBJECT_NAME":"ONEWEB-0272","OBJECT_ID":"2021-060Z","EPOCH":"2025-12-07T19:59:02.867712","MEAN_MOTION":13.16596154,"ECCENTRICITY":0.00020124,"INCLINATION":87.9036,"RA_OF_ASC_NODE":266.8904,"ARG_OF_PERICENTER":78.5627,"MEAN_ANOMALY":281.573,"EPHEMERIS_TYPE":0,"CLASSIFICATION_TYPE":"U","NORAD_CAT_ID":48990,"ELEMENT_SET_NO":999,"REV_AT_EPOCH":21443,"BSTAR":-3.6461416e-5,"MEAN_MOTION_DOT":-1.0e-8,"MEAN_MOTION_DDOT":0},{"OBJECT_NAME":"ONEWEB-0273","OBJECT_ID":"2021-060AA","EPOCH":"2025-12-07T18:41:31.420896","MEAN_MOTION":13.16595799,"ECCENTRICITY":0.00018562,"INCLINATION":87.9041,"RA_OF_ASC_NODE":266.8961,"ARG_OF_PERICENTER":70.3105,"MEAN_ANOMALY":289.8226,"EPHEMERIS_TYPE":0,"CLASSIFICATION_TYPE":"U","NORAD_CAT_ID":48991,"ELEMENT_SET_NO":999,"REV_AT_EPOCH":21440,"BSTAR":0.00017334173,"MEAN_MOTION_DOT":7.9e-7,"MEAN_MOTION_DDOT":0},{"OBJECT_NAME":"ONEWEB-0274","OBJECT_ID":"2021-060AB","EPOCH":"2025-12-07T19:18:00.414144","MEAN_MOTION":13.16594762,"ECCENTRICITY":0.00019607,"INCLINATION":87.9032,"RA_OF_ASC_NODE":266.9141,"ARG_OF_PERICENTER":84.051,"MEAN_ANOMALY":276.0845,"EPHEMERIS_TYPE":0,"CLASSIFICATION_TYPE":"U","NORAD_CAT_ID":48992,"ELEMENT_SET_NO":999,"REV_AT_EPOCH":21444,"BSTAR":3.6838602e-5,"MEAN_MOTION_DOT":2.7e-7,"MEAN_MOTION_DDOT":0},{"OBJECT_NAME":"ONEWEB-0275","OBJECT_ID":"2021-060AC","EPOCH":"2025-12-07T19:02:02.788512","MEAN_MOTION":13.16595227,"ECCENTRICITY":0.00018684,"INCLINATION":87.9043,"RA_OF_ASC_NODE":266.8866,"ARG_OF_PERICENTER":75.8098,"MEAN_ANOMALY":284.324,"EPHEMERIS_TYPE":0,"CLASSIFICATION_TYPE":"U","NORAD_CAT_ID":48993,"ELEMENT_SET_NO":999,"REV_AT_EPOCH":21437,"BSTAR":0.00028764643,"MEAN_MOTION_DOT":1.23e-6,"MEAN_MOTION_DDOT":0},{"OBJECT_NAME":"ONEWEB-0276","OBJECT_ID":"2021-060AD","EPOCH":"2025-12-07T19:49:55.221312","MEAN_MOTION":13.16595395,"ECCENTRICITY":0.00017276,"INCLINATION":87.9046,"RA_OF_ASC_NODE":266.8796,"ARG_OF_PERICENTER":67.6289,"MEAN_ANOMALY":292.5025,"EPHEMERIS_TYPE":0,"CLASSIFICATION_TYPE":"U","NORAD_CAT_ID":48994,"ELEMENT_SET_NO":999,"REV_AT_EPOCH":21439,"BSTAR":-9.3520116e-5,"MEAN_MOTION_DOT":-2.3e-7,"MEAN_MOTION_DDOT":0},{"OBJECT_NAME":"ONEWEB-0277","OBJECT_ID":"2021-060AE","EPOCH":"2025-12-07T20:08:06.226944","MEAN_MOTION":13.16593147,"ECCENTRICITY":0.00019489,"INCLINATION":87.9031,"RA_OF_ASC_NODE":266.9016,"ARG_OF_PERICENTER":76.9209,"MEAN_ANOMALY":283.2139,"EPHEMERIS_TYPE":0,"CLASSIFICATION_TYPE":"U","NORAD_CAT_ID":48995,"ELEMENT_SET_NO":999,"REV_AT_EPOCH":21438,"BSTAR":-0.00014639359,"MEAN_MOTION_DOT":-4.3e-7,"MEAN_MOTION_DDOT":0},{"OBJECT_NAME":"ONEWEB-0278","OBJECT_ID":"2021-060AF","EPOCH":"2025-12-07T19:54:27.605088","MEAN_MOTION":13.16597236,"ECCENTRICITY":0.00015506,"INCLINATION":87.9042,"RA_OF_ASC_NODE":266.8753,"ARG_OF_PERICENTER":71.8444,"MEAN_ANOMALY":288.2856,"EPHEMERIS_TYPE":0,"CLASSIFICATION_TYPE":"U","NORAD_CAT_ID":48996,"ELEMENT_SET_NO":999,"REV_AT_EPOCH":21451,"BSTAR":-0.0001691086,"MEAN_MOTION_DOT":-5.2e-7,"MEAN_MOTION_DDOT":0},{"OBJECT_NAME":"ONEWEB-0279","OBJECT_ID":"2021-060AG","EPOCH":"2025-12-07T20:05:54.106656","MEAN_MOTION":13.16594335,"ECCENTRICITY":0.00020572,"INCLINATION":87.9045,"RA_OF_ASC_NODE":266.8716,"ARG_OF_PERICENTER":75.3186,"MEAN_ANOMALY":284.8173,"EPHEMERIS_TYPE":0,"CLASSIFICATION_TYPE":"U","NORAD_CAT_ID":48997,"ELEMENT_SET_NO":999,"REV_AT_EPOCH":21444,"BSTAR":-0.00011952855,"MEAN_MOTION_DOT":-3.3e-7,"MEAN_MOTION_DDOT":0},{"OBJECT_NAME":"ONEWEB-0280","OBJECT_ID":"2021-060AH","EPOCH":"2025-12-07T18:38:05.755200","MEAN_MOTION":13.1659309,"ECCENTRICITY":0.00017708,"INCLINATION":87.9044,"RA_OF_ASC_NODE":266.8896,"ARG_OF_PERICENTER":62.5581,"MEAN_ANOMALY":297.573,"EPHEMERIS_TYPE":0,"CLASSIFICATION_TYPE":"U","NORAD_CAT_ID":48998,"ELEMENT_SET_NO":999,"REV_AT_EPOCH":21437,"BSTAR":6.4252679e-5,"MEAN_MOTION_DOT":3.7e-7,"MEAN_MOTION_DDOT":0},{"OBJECT_NAME":"ONEWEB-0281","OBJECT_ID":"2021-060AJ","EPOCH":"2025-12-07T18:46:04.654848","MEAN_MOTION":13.16596626,"ECCENTRICITY":0.00017129,"INCLINATION":87.9043,"RA_OF_ASC_NODE":266.8839,"ARG_OF_PERICENTER":77.7598,"MEAN_ANOMALY":282.3725,"EPHEMERIS_TYPE":0,"CLASSIFICATION_TYPE":"U","NORAD_CAT_ID":48999,"ELEMENT_SET_NO":999,"REV_AT_EPOCH":21444,"BSTAR":0.00047436189,"MEAN_MOTION_DOT":1.94e-6,"MEAN_MOTION_DDOT":0},{"OBJECT_NAME":"ONEWEB-0282","OBJECT_ID":"2021-060AK","EPOCH":"2025-12-07T19:29:24.336672","MEAN_MOTION":13.16595717,"ECCENTRICITY":0.00018832,"INCLINATION":87.9043,"RA_OF_ASC_NODE":266.8886,"ARG_OF_PERICENTER":70.9477,"MEAN_ANOMALY":289.1858,"EPHEMERIS_TYPE":0,"CLASSIFICATION_TYPE":"U","NORAD_CAT_ID":49000,"ELEMENT_SET_NO":999,"REV_AT_EPOCH":21442,"BSTAR":-6.916245e-6,"MEAN_MOTION_DOT":1.0e-7,"MEAN_MOTION_DDOT":0},{"OBJECT_NAME":"ONEWEB-0283","OBJECT_ID":"2021-060AL","EPOCH":"2025-12-07T21:02:52.231488","MEAN_MOTION":13.1659637,"ECCENTRICITY":0.00019114,"INCLINATION":87.9043,"RA_OF_ASC_NODE":266.8761,"ARG_OF_PERICENTER":74.3269,"MEAN_ANOMALY":285.8073,"EPHEMERIS_TYPE":0,"CLASSIFICATION_TYPE":"U","NORAD_CAT_ID":49001,"ELEMENT_SET_NO":999,"REV_AT_EPOCH":21444,"BSTAR":-4.0970808e-5,"MEAN_MOTION_DOT":-3.0e-8,"MEAN_MOTION_DDOT":0},{"OBJECT_NAME":"ONEWEB-0284","OBJECT_ID":"2021-060AM","EPOCH":"2025-12-07T19:04:19.808544","MEAN_MOTION":13.16595766,"ECCENTRICITY":0.00015848,"INCLINATION":87.9047,"RA_OF_ASC_NODE":266.8814,"ARG_OF_PERICENTER":62.9504,"MEAN_ANOMALY":297.1789,"EPHEMERIS_TYPE":0,"CLASSIFICATION_TYPE":"U","NORAD_CAT_ID":49002,"ELEMENT_SET_NO":999,"REV_AT_EPOCH":21441,"BSTAR":0.00021265775,"MEAN_MOTION_DOT":9.4e-7,"MEAN_MOTION_DDOT":0},{"OBJECT_NAME":"ONEWEB-0285","OBJECT_ID":"2021-075A","EPOCH":"2025-12-07T20:34:46.878528","MEAN_MOTION":13.12444032,"ECCENTRICITY":0.00015622,"INCLINATION":87.8938,"RA_OF_ASC_NODE":28.6673,"ARG_OF_PERICENTER":98.1475,"MEAN_ANOMALY":261.9831,"EPHEMERIS_TYPE":0,"CLASSIFICATION_TYPE":"U","NORAD_CAT_ID":49075,"ELEMENT_SET_NO":999,"REV_AT_EPOCH":21011,"BSTAR":-0.0011557638,"MEAN_MOTION_DOT":-4.03e-6,"MEAN_MOTION_DDOT":0},{"OBJECT_NAME":"ONEWEB-0286","OBJECT_ID":"2021-075B","EPOCH":"2025-12-07T20:08:41.773632","MEAN_MOTION":13.12443219,"ECCENTRICITY":0.00016844,"INCLINATION":87.8933,"RA_OF_ASC_NODE":28.7035,"ARG_OF_PERICENTER":104.5624,"MEAN_ANOMALY":255.5692,"EPHEMERIS_TYPE":0,"CLASSIFICATION_TYPE":"U","NORAD_CAT_ID":49076,"ELEMENT_SET_NO":999,"REV_AT_EPOCH":20946,"BSTAR":-1.4397011e-5,"MEAN_MOTION_DOT":8.0e-8,"MEAN_MOTION_DDOT":0},{"OBJECT_NAME":"ONEWEB-0287","OBJECT_ID":"2021-075C","EPOCH":"2025-12-07T21:12:11.779488","MEAN_MOTION":13.17651095,"ECCENTRICITY":0.00014915,"INCLINATION":87.9122,"RA_OF_ASC_NODE":43.9058,"ARG_OF_PERICENTER":115.536,"MEAN_ANOMALY":244.5926,"EPHEMERIS_TYPE":0,"CLASSIFICATION_TYPE":"U","NORAD_CAT_ID":49077,"ELEMENT_SET_NO":999,"REV_AT_EPOCH":20843,"BSTAR":0.0001184079,"MEAN_MOTION_DOT":5.9e-7,"MEAN_MOTION_DDOT":0}]
